{"fetched_at":"2026-07-21T07:06:26.959Z","source":"https://celestrak.org/NORAD/elements/gp.php?GROUP=kuiper&FORMAT=JSON","constellation":"kuiper","records":[{"OBJECT_NAME":"KUIPER-00629","OBJECT_ID":"2026-151W","EPOCH":"2026-07-20T22:00:01.999584","CLASSIFICATION_TYPE":"U","MEAN_MOTION":15.27780039,"ECCENTRICITY":0.00066424,"INCLINATION":51.8806,"RA_OF_ASC_NODE":153.0366,"ARG_OF_PERICENTER":177.1142,"MEAN_ANOMALY":101.8028,"EPHEMERIS_TYPE":0,"NORAD_CAT_ID":69783,"ELEMENT_SET_NO":999,"REV_AT_EPOCH":322,"BSTAR":-0.00018019968,"MEAN_MOTION_DOT":-0.00005313,"MEAN_MOTION_DDOT":0},{"OBJECT_NAME":"KUIPER-00631","OBJECT_ID":"2026-151X","EPOCH":"2026-07-20T22:00:01.999584","CLASSIFICATION_TYPE":"U","MEAN_MOTION":15.28653602,"ECCENTRICITY":0.00074606,"INCLINATION":51.8765,"RA_OF_ASC_NODE":152.9982,"ARG_OF_PERICENTER":175.3252,"MEAN_ANOMALY":111.0927,"EPHEMERIS_TYPE":0,"NORAD_CAT_ID":69784,"ELEMENT_SET_NO":999,"REV_AT_EPOCH":130,"BSTAR":-0.056152961,"MEAN_MOTION_DOT":-0.01438866,"MEAN_MOTION_DDOT":0},{"OBJECT_NAME":"KUIPER-00634","OBJECT_ID":"2026-151Y","EPOCH":"2026-07-20T07:37:05.716128","CLASSIFICATION_TYPE":"U","MEAN_MOTION":15.37817373,"ECCENTRICITY":0.00036212,"INCLINATION":51.8776,"RA_OF_ASC_NODE":155.5703,"ARG_OF_PERICENTER":151.7907,"MEAN_ANOMALY":208.3277,"EPHEMERIS_TYPE":0,"NORAD_CAT_ID":69785,"ELEMENT_SET_NO":999,"REV_AT_EPOCH":280,"BSTAR":0.00023109544,"MEAN_MOTION_DOT":0.0000834,"MEAN_MOTION_DDOT":0},{"OBJECT_NAME":"KUIPER-00639","OBJECT_ID":"2026-151Z","EPOCH":"2026-07-20T22:00:01.999584","CLASSIFICATION_TYPE":"U","MEAN_MOTION":15.34518141,"ECCENTRICITY":0.00099974,"INCLINATION":51.8698,"RA_OF_ASC_NODE":152.918,"ARG_OF_PERICENTER":178.4851,"MEAN_ANOMALY":136.384,"EPHEMERIS_TYPE":0,"NORAD_CAT_ID":69786,"ELEMENT_SET_NO":999,"REV_AT_EPOCH":205,"BSTAR":0.0002332747,"MEAN_MOTION_DOT":0.00007555,"MEAN_MOTION_DDOT":0},{"OBJECT_NAME":"KUIPER-00641","OBJECT_ID":"2026-151AA","EPOCH":"2026-07-20T22:00:01.999584","CLASSIFICATION_TYPE":"U","MEAN_MOTION":15.34163345,"ECCENTRICITY":0.00121889,"INCLINATION":51.8686,"RA_OF_ASC_NODE":153.001,"ARG_OF_PERICENTER":183.622,"MEAN_ANOMALY":89.5041,"EPHEMERIS_TYPE":0,"NORAD_CAT_ID":69787,"ELEMENT_SET_NO":999,"REV_AT_EPOCH":352,"BSTAR":0.000010392126,"MEAN_MOTION_DOT":-3.5e-7,"MEAN_MOTION_DDOT":0},{"OBJECT_NAME":"KUIPER-00644","OBJECT_ID":"2026-151AB","EPOCH":"2026-07-20T22:00:01.999584","CLASSIFICATION_TYPE":"U","MEAN_MOTION":15.36578868,"ECCENTRICITY":0.00082605,"INCLINATION":51.8748,"RA_OF_ASC_NODE":152.8342,"ARG_OF_PERICENTER":178.5113,"MEAN_ANOMALY":180.1854,"EPHEMERIS_TYPE":0,"NORAD_CAT_ID":69788,"ELEMENT_SET_NO":999,"REV_AT_EPOCH":382,"BSTAR":0.00013661082,"MEAN_MOTION_DOT":0.0000457,"MEAN_MOTION_DDOT":0},{"OBJECT_NAME":"KUIPER-00646","OBJECT_ID":"2026-151AC","EPOCH":"2026-07-20T22:08:53.275776","CLASSIFICATION_TYPE":"U","MEAN_MOTION":15.35321629,"ECCENTRICITY":0.00094168,"INCLINATION":51.8706,"RA_OF_ASC_NODE":152.8675,"ARG_OF_PERICENTER":183.3361,"MEAN_ANOMALY":176.7564,"EPHEMERIS_TYPE":0,"NORAD_CAT_ID":69789,"ELEMENT_SET_NO":999,"REV_AT_EPOCH":289,"BSTAR":0.00034412436,"MEAN_MOTION_DOT":0.00011633,"MEAN_MOTION_DDOT":0},{"OBJECT_NAME":"KUIPER-00647","OBJECT_ID":"2026-151AD","EPOCH":"2026-07-20T22:17:22.551072","CLASSIFICATION_TYPE":"U","MEAN_MOTION":15.34651372,"ECCENTRICITY":0.00108395,"INCLINATION":51.8671,"RA_OF_ASC_NODE":152.9002,"ARG_OF_PERICENTER":186.3254,"MEAN_ANOMALY":173.7596,"EPHEMERIS_TYPE":0,"NORAD_CAT_ID":69790,"ELEMENT_SET_NO":999,"REV_AT_EPOCH":289,"BSTAR":0.00027484878,"MEAN_MOTION_DOT":0.00009013,"MEAN_MOTION_DDOT":0},{"OBJECT_NAME":"KUIPER-00662","OBJECT_ID":"2026-151AE","EPOCH":"2026-07-20T22:00:23.614272","CLASSIFICATION_TYPE":"U","MEAN_MOTION":15.36578088,"ECCENTRICITY":0.00083273,"INCLINATION":51.8745,"RA_OF_ASC_NODE":152.8325,"ARG_OF_PERICENTER":178.4752,"MEAN_ANOMALY":181.6261,"EPHEMERIS_TYPE":0,"NORAD_CAT_ID":69791,"ELEMENT_SET_NO":999,"REV_AT_EPOCH":289,"BSTAR":0.00037319467,"MEAN_MOTION_DOT":0.00013179,"MEAN_MOTION_DDOT":0}]}
