KUIPER-00629            
1 69783U 26151W   26201.91668981 -.00005313  00000+0 -18020-3 0  9994
2 69783  51.8806 153.0366 0006642 177.1142 101.8028 15.27780039  3227
KUIPER-00631            
1 69784U 26151X   26201.91668981 -.01438866  00000+0 -56153-1 0  9996
2 69784  51.8765 152.9982 0007460 175.3252 111.0927 15.28653602  1309
KUIPER-00634            
1 69785U 26151Y   26201.31742727  .00008340  00000+0  23110-3 0  9998
2 69785  51.8776 155.5703 0003621 151.7907 208.3277 15.37817373  2803
KUIPER-00639            
1 69786U 26151Z   26201.91668981  .00007555  00000+0  23327-3 0  9991
2 69786  51.8698 152.9180 0009997 178.4851 136.3840 15.34518141  2054
KUIPER-00641            
1 69787U 26151AA  26201.91668981 -.00000035  00000+0  10392-4 0  9998
2 69787  51.8686 153.0010 0012188 183.6220  89.5041 15.34163345  3527
KUIPER-00644            
1 69788U 26151AB  26201.91668981  .00004570  00000+0  13661-3 0  9997
2 69788  51.8748 152.8342 0008260 178.5113 180.1854 15.36578868  3827
KUIPER-00646            
1 69789U 26151AC  26201.92283884  .00011633  00000+0  34412-3 0  9999
2 69789  51.8706 152.8675 0009416 183.3361 176.7564 15.35321629  2899
KUIPER-00647            
1 69790U 26151AD  26201.92873323  .00009013  00000+0  27485-3 0  9995
2 69790  51.8671 152.9002 0010839 186.3254 173.7596 15.34651372  2894
KUIPER-00662            
1 69791U 26151AE  26201.91693998  .00013179  00000+0  37319-3 0  9998
2 69791  51.8745 152.8325 0008327 178.4752 181.6261 15.36578088  2899
